[Satellite]
VERSION=1.1
NAME=FGRST (GLAST)
NICKNAME=FGRST (GLAST)
TLE1=1 33053U 08029A   20157.75523556  .00000407  00000-0  64041-5 0  9997
TLE2=2 33053  25.5816 180.0384 0012010 231.1718 128.7745 15.11341934661564
STATUS=0
